COSMOS 2425 (716)       
1 29670U 06062A   18164.86944156 -.00000018  00000-0  10000-3 0  9995
2 29670  65.2834 292.6488 0020506 349.5139  57.2117  2.13105002 89240
COSMOS 2426 (717)       
1 29671U 06062B   18164.62176975 -.00000020  00000-0  10000-3 0  9999
2 29671  65.2992 292.7540 0018660 161.0732 271.4232  2.13102971 89240
COSMOS 2433 (720)       
1 32275U 07052A   18165.18503132 -.00000032  00000-0  10000-3 0  9997
2 32275  65.6866  53.4631 0002419 300.5882 179.5908  2.13104544 82768
COSMOS 2432 (719)       
1 32276U 07052B   18164.72828382 -.00000032  00000-0  10000-3 0  9994
2 32276  65.6985  53.5545 0012411 339.4814 102.2779  2.13104044 82758
COSMOS 2434 (721)       
1 32393U 07065A   18165.03346605 -.00000017  00000-0  00000+0 0  9994
2 32393  64.8967 291.6193 0005431 111.3838 140.5897  2.13103015 81460
COSMOS 2436 (723)       
1 32395U 07065C   18165.12458369 -.00000017  00000-0  10000-3 0  9992
2 32395  64.9057 291.6664 0014607   5.3954   6.9630  2.13104410 81406
COSMOS 2456 (730)       
1 36111U 09070A   18164.60765205  .00000094  00000-0  00000-0 0  9992
2 36111  64.1860 171.2243 0006635 300.6078 156.9368  2.13103008 66124
COSMOS 2457 (733)       
1 36112U 09070B   18164.54762708  .00000095  00000-0  00000+0 0  9991
2 36112  64.1684 171.1371 0005755 195.5233 342.8675  2.13101613 66123
COSMOS 2458 (734)       
1 36113U 09070C   18164.69482520  .00000093  00000-0  10000-3 0  9992
2 36113  64.1740 171.1431 0002994 314.6785  24.4454  2.13096847 66122
COSMOS 2459 (731)       
1 36400U 10007A   18164.71260147 -.00000032  00000-0  10000-3 0  9999
2 36400  65.5954  52.5392 0028344 353.3761 343.3393  2.13102297 64470
COSMOS 2461 (735)       
1 36401U 10007B   18164.62657964 -.00000033  00000-0  10000-3 0  9998
2 36401  65.5890  52.5184 0008057  56.6894 124.6255  2.13102336 64479
COSMOS 2460 (732)       
1 36402U 10007C   18164.89250771 -.00000033  00000-0  10000-3 0  9993
2 36402  65.5788  52.4758 0002039  21.0900  44.8657  2.13101668 64487
COSMOS 2464 (736)       
1 37139U 10041C   18165.16628546 -.00000017  00000-0  00000+0 0  9996
2 37139  64.5002 291.4213 0023648  15.9900 205.6759  2.13102738 60558
COSMOS 2471 (701K)      
1 37372U 11009A   18164.74082951 -.00000033  00000-0  00000+0 0  9995
2 37372  65.5747  52.4270 0007187 238.7210 214.7590  2.13107566 56756
COSMOS 2474 (742)       
1 37829U 11055A   18164.88498752  .00000092  00000-0  00000-0 0  9993
2 37829  64.5103 171.9305 0011010 253.9106 274.5660  2.13101976 52125
COSMOS 2476 (744)       
1 37867U 11064A   18164.60957571  .00000095  00000-0  00000-0 0  9997
2 37867  64.4898 172.0022 0020549 245.5855 117.6475  2.13102024 51473
COSMOS 2477 (745)       
1 37868U 11064B   18164.63226765  .00000095  00000-0  00000-0 0  9995
2 37868  64.4983 172.0497 0018385 247.1787 312.3584  2.13101843 51420
COSMOS 2475 (743)       
1 37869U 11064C   18164.63256164  .00000095  00000-0  00000+0 0  9991
2 37869  64.5051 172.0444 0023030 268.7405 247.7247  2.13102102 51436
COSMOS 2485 (747)       
1 39155U 13019A   18164.43121144  .00000098  00000-0  00000-0 0  9994
2 39155  64.6590 172.1170 0020882 241.1134  30.1603  2.13102038 39937
COSMOS 2492 (754)       
1 39620U 14012A   18164.89013799 -.00000033  00000-0  10000-3 0  9995
2 39620  65.4682  52.3623 0015663 334.3484 323.7683  2.13103426 32890
COSMOS 2500 (755)       
1 40001U 14032A   18164.64101348 -.00000033  00000-0  00000-0 0  9999
2 40001  65.4076  52.3401 0004246 211.3229 117.9518  2.13102849 31103
COSMOS 2501 (702K)      
1 40315U 14075A   18164.57572552 -.00000021  00000-0  00000-0 0  9992
2 40315  64.2257 292.6573 0015546 203.5408 237.3146  2.13098667 27511
COSMOS 2514 (751)       
1 41330U 16008A   18164.84866105 -.00000033  00000-0  00000-0 0  9991
2 41330  65.2120  52.3874 0007681 220.8715  88.5778  2.13103280 18276
COSMOS 2516 (753)       
1 41554U 16032A   18165.05677764 -.00000019  00000-0  00000+0 0  9994
2 41554  64.4461 292.5037 0011634 211.5611 148.6884  2.13101668 15896
COSMOS 2522 (752)       
1 42939U 17055A   18164.53141238 -.00000021  00000-0  00000-0 0  9996
2 42939  64.6767 292.4871 0006373 237.6856 305.9531  2.13101934  5638
